IRIDIUM 155             
1 43573U 18061E   22043.41220123  .00000187  00000+0  59720-4 0  9996
2 43573  86.4003 359.4010 0002394  94.9046 265.2423 14.34217780186069
IRIDIUM 154             
1 43574U 18061F   22043.39317160  .00000180  00000+0  57263-4 0  9995
2 43574  86.4007 359.4665 0001853  83.5106 276.6300 14.34218292186115
IRIDIUM 163             
1 43575U 18061G   22043.37414925  .00000184  00000+0  58650-4 0  9996
2 43575  86.4004 359.4384 0002324  75.7894 284.3560 14.34220732186084
IRIDIUM 156             
1 43576U 18061H   22043.41854414  .00000179  00000+0  56743-4 0  9998
2 43576  86.4005 359.4251 0002454  84.7071 275.4405 14.34218258186089
IRIDIUM 164             
1 43577U 18061J   22043.39951691  .00000189  00000+0  60281-4 0  9994
2 43577  86.4006 359.4491 0001969  80.6033 279.5386 14.34219020186126
IRIDIUM 159             
1 43578U 18061K   22043.57712282  .00000177  00000+0  56273-4 0  9999
2 43578  86.4003 359.3452 0001939  83.2829 276.8587 14.34219527186113
IRIDIUM 180             
1 43922U 19002A   22043.43705416  .00000176  00000+0  55942-4 0  9995
2 43922  86.3966 296.2772 0001605  63.8962 296.2399 14.34217321161704
IRIDIUM 176             
1 43923U 19002B   22043.40434725  .00000564  00000+0  85600-4 0  9990
2 43923  86.6095 296.3271 0002050  98.3837 261.7612 14.72245581165930
IRIDIUM 168             
1 43924U 19002C   22043.43072345  .00000178  00000+0  56540-4 0  9992
2 43924  86.3968 296.3124 0001741  82.2512 277.8881 14.34220399161684
IRIDIUM 173             
1 43925U 19002D   22043.20872273  .00000170  00000+0  53767-4 0  9996
2 43925  86.3965 296.3586 0001853  81.4965 278.6440 14.34219677161633
IRIDIUM 169             
1 43926U 19002E   22043.51980050  .00000219  00000+0  64922-4 0  9993
2 43926  86.4260 327.8343 0005562 141.8075 218.3518 14.38610866162253
IRIDIUM 172             
1 43927U 19002F   22043.41170084  .00000184  00000+0  58580-4 0  9995
2 43927  86.3965 296.2769 0001785  79.4907 280.6490 14.34218422161673
IRIDIUM 175             
1 43928U 19002G   22043.39820166  .00000578  00000+0  87780-4 0  9997
2 43928  86.6103 296.1553 0002082  80.2685 279.8767 14.72254841165921
IRIDIUM 171             
1 43929U 19002H   22043.46243893  .00000474  00000+0  16236-3 0  9994
2 43929  86.3975 296.3859 0001776  81.6376 278.5021 14.34215518161671
IRIDIUM 170             
1 43930U 19002J   22043.41053409  .00000494  00000+0  74426-4 0  9991
2 43930  86.6100 296.3291 0002107  88.4246 271.7212 14.72244790165943
IRIDIUM 167             
1 43931U 19002K   22043.45610755  .00000181  00000+0  57434-4 0  9992
2 43931  86.3966 296.2668 0001612  73.3707 286.7666 14.34217642161672
